STARLINK-1466           
1 45732U 20038C   21066.64771147  .00000636  00000-0  61622-4 0  9992
2 45732  53.0585 162.9974 0001296 114.8548 245.2576 15.06380826 40662
STARLINK-1467           
1 45733U 20038D   21066.78777036  .00000543  00000-0  55377-4 0  9998
2 45733  53.0632 162.3398 0001848 105.0676 255.0517 15.06393274 40684
STARLINK-1468           
1 45734U 20038E   21066.63664572  .00000580  00000-0  57849-4 0  9990
2 45734  53.0580 163.0484 0001430 121.8897 238.2231 15.06383717 40664
STARLINK-1471           
1 45735U 20038F   21066.54080383 -.00001137  00000-0 -57484-4 0  9999
2 45735  53.0588 163.4749 0001360 115.5562 244.5568 15.06391841 40640
STARLINK-1472           
1 45736U 20038G   21066.65137413  .00001119  00000-0  93971-4 0  9998
2 45736  53.0579 162.9816 0001502 117.1226 242.9917 15.06405406 40668
STARLINK-1473           
1 45737U 20038H   21066.93040111  .00007770  11390-4  19157-4 0  9999
2 45737  52.9963  35.0219 0008876 267.8118  92.1896 16.01961710 42478
STARLINK-1474           
1 45738U 20038J   21066.52974324  .00000896  00000-0  79033-4 0  9990
2 45738  53.0581 163.5267 0001792 108.6454 251.4730 15.06394342 40641
STARLINK-1475           
1 45739U 20038K   21066.87622271  .00000643  00000-0  62060-4 0  9992
2 45739  53.0623 121.9519 0002073  90.8246 269.2980 15.06394976 41256
STARLINK-1479           
1 45740U 20038L   21066.53710857  .00000799  00000-0  72537-4 0  9997
2 45740  53.0583 163.4953 0001125 116.6495 243.4609 15.06399639 40641
STARLINK-1480           
1 45741U 20038M   21066.64032865 -.00000692  00000-0 -27578-4 0  9995
2 45741  53.0579 163.0292 0001469 125.3628 234.7499 15.06387650 40678
STARLINK-1481           
1 45742U 20038N   21066.63295633 -.00000839  00000-0 -37422-4 0  9991
2 45742  53.0599 163.0588 0001233 109.3078 250.8044 15.06389794 40653
STARLINK-1483           
1 45743U 20038P   21066.53342736 -.00000696  00000-0 -27813-4 0  9992
2 45743  53.0586 163.5023 0001578 122.1035 238.0107 15.06396280 40642
STARLINK-1500           
1 45744U 20038Q   21066.62189348  .00000650  00000-0  62568-4 0  9995
2 45744  53.0582 163.1103 0001409 120.7933 239.3195 15.06392534 40669
STARLINK-1503           
1 45745U 20038R   21066.54449072 -.00000644  00000-0 -24366-4 0  9999
2 45745  53.0609 163.4516 0001089 110.4980 249.6126 15.06399684 40642
STARLINK-1504           
1 45746U 20038S   21066.55923657 -.00000184  00000-0  65141-5 0  9992
2 45746  53.0602 163.3939 0001291 113.2790 246.8335 15.06390543 40645
STARLINK-1506           
1 45747U 20038T   21066.62925586  .00000181  00000-0  31041-4 0  9991
2 45747  53.0580 163.0750 0000945 103.9381 256.1714 15.06395309 40668
STARLINK-1507           
1 45748U 20038U   21066.61451183  .00000990  00000-0  85368-4 0  9997
2 45748  53.0597 163.1414 0001375 116.1840 243.9290 15.06399219 40655
STARLINK-1516           
1 45749U 20038V   21066.92951299  .00101429  15101-4  28497-3 0  9995
2 45749  52.9859  39.9906 0002049   3.7915 356.3126 15.93507808 42395
STARLINK-1391           
1 45750U 20038W   21066.91125496  .00002383  00000-0  17888-3 0  9997
2 45750  53.0554 141.8172 0001334 102.5558 257.5580 15.06389944 40999
STARLINK-1464           
1 45751U 20038X   21066.90755638 -.00000956  00000-0 -45330-4 0  9994
2 45751  53.0572 141.8389 0001157 113.5837 246.5273 15.06386737 40999
STARLINK-1469           
1 45752U 20038Y   21066.66094697  .00014667  00000-0  14440-3 0  9998
2 45752  52.9997  50.1906 0002757  40.4838 319.6381 15.66268927 42240
STARLINK-1476           
1 45753U 20038Z   21066.91861857 -.00000872  00000-0 -39654-4 0  9997
2 45753  53.0569 141.7894 0001353 123.1505 236.9614 15.06390856 40993
STARLINK-1477           
1 45754U 20038AA  21066.92229962 -.00000860  00000-0 -38892-4 0  9994
2 45754  53.0584 141.7733 0001152 120.6595 239.4508 15.06388606 40991
STARLINK-1478           
1 45755U 20038AB  21066.60899198  .00000601  00000-0  59253-4 0  9999
2 45755  53.0560 143.1760 0001151 110.9787 249.1325 15.06393474 40934
STARLINK-1484           
1 45756U 20038AC  21066.93703505 -.00000263  00000-0  12380-5 0  9998
2 45756  53.0561 141.7022 0000886 117.0790 243.0289 15.06395725 40985
STARLINK-1486           
1 45757U 20038AD  21066.62372970  .00000494  00000-0  52123-4 0  9996
2 45757  53.0559 143.1114 0004125 164.5540 195.5576 15.06394954 40939
STARLINK-1487           
1 45758U 20038AE  21066.61636175 -.00002630  00000-0 -15773-3 0  9991
2 45758  53.0557 143.1434 0001325 129.3618 230.7489 15.06407181 40939
STARLINK-1493           
1 45759U 20038AF  21066.92966899  .00000587  00000-0  58315-4 0  9992
2 45759  53.0571 141.7347 0000987 121.2857 238.8229 15.06394948 40984
STARLINK-1494           
1 45760U 20038AG  21066.93335772 -.00000805  00000-0 -35197-4 0  9993
2 45760  53.0560 141.7134 0000936 112.1458 247.9630 15.06391852 40997
STARLINK-1495           
1 45761U 20038AH  21066.62743329  .00001951  00000-0  14984-3 0  9992
2 45761  53.0585 143.0897 0001082 129.6276 230.4808 15.06398958 40954
STARLINK-1499           
1 45762U 20038AJ  21066.90386764  .00000583  00000-0  58063-4 0  9997
2 45762  53.0560 141.8528 0001411 117.0315 243.0818 15.06393597 40995
STARLINK-1501           
1 45763U 20038AK  21066.93331710  .00000466  00000-0  51117-4 0  9995
2 45763  53.0014 141.7423 0001328 125.0461 235.0652 15.05587345 41196
STARLINK-1502           
1 45764U 20038AL  21066.89648890 -.00000773  00000-0 -32981-4 0  9992
2 45764  53.0569 141.8859 0001183 107.9752 252.1366 15.06399657 40994
STARLINK-1508           
1 45765U 20038AM  21066.90018352 -.00000859  00000-0 -38815-4 0  9996
2 45765  53.0580 141.8705 0001122 118.7205 241.3897 15.06385531 40999
STARLINK-1509           
1 45766U 20038AN  21066.68638618  .00000662  00000-0  63324-4 0  9998
2 45766  53.0551 142.8316 0001147 106.7621 253.3494 15.06403829 40945
STARLINK-1511           
1 45767U 20038AP  21066.61267005 -.00000445  00000-0 -10967-4 0  9996
2 45767  53.0563 143.1598 0001380 131.9669 228.1438 15.06396104 40930
STARLINK-1521           
1 45768U 20038AQ  21066.92600033  .00000609  00000-0  59807-4 0  9999
2 45768  53.0567 141.7516 0001331 107.3755 252.7380 15.06382032 40998
STARLINK-1459           
1 45769U 20038AR  21066.61819900  .00000617  00000-0  60293-4 0  9991
2 45769  53.0587 163.1310 0001294 113.5885 246.5240 15.06397616 40666
STARLINK-1462           
1 45770U 20038AS  21066.88633716 -.00001163  00000-0 -59186-4 0  9999
2 45770  53.0613 121.9204 0001265  73.1806 286.9322 15.06391863 41257
STARLINK-1463           
1 45771U 20038AT  21066.87989635  .00000667  00000-0  63664-4 0  9995
2 45771  53.0582 121.9500 0001248  77.6112 282.5016 15.06404033 41258
STARLINK-1470           
1 45772U 20038AU  21066.86887015  .00000439  00000-0  48370-4 0  9998
2 45772  53.0586 122.0022 0001379  82.0434 278.0711 15.06381566 41264
STARLINK-1482           
1 45773U 20038AV  21066.86147316  .00000666  00000-0  63599-4 0  9994
2 45773  53.0604 122.0369 0001080  80.3523 279.7588 15.06409886 41265
STARLINK-1485           
1 45774U 20038AW  21066.56660016  .00000465  00000-0  50107-4 0  9997
2 45774  53.0613 123.3436 0001421  78.0922 282.0226 15.06393179 41219
STARLINK-1488           
1 45775U 20038AX  21066.57029434  .00000875  00000-0  77659-4 0  9998
2 45775  53.0584 123.3396 0001124  81.5544 278.5573 15.06386525 41224
STARLINK-1489           
1 45776U 20038AY  21066.84304095  .00000833  00000-0  74770-4 0  9993
2 45776  53.0592 122.1234 0001019  95.5799 264.5307 15.06397681 41261
STARLINK-1490           
1 45777U 20038AZ  21066.83935530  .00000698  00000-0  65737-4 0  9999
2 45777  53.0583 122.1306 0001084  89.6582 270.4531 15.06398021 41262
STARLINK-1491           
1 45778U 20038BA  21066.88727881  .00000672  00000-0  63996-4 0  9990
2 45778  53.0574 121.9189 0001075  83.2532 276.8579 15.06398545 41256
STARLINK-1492           
1 45779U 20038BB  21066.88359685  .00000931  00000-0  81422-4 0  9996
2 45779  53.0562 121.9368 0001182  78.2933 281.8188 15.06394176 41259
STARLINK-1496           
1 45780U 20038BC  21066.56291131 -.00000650  00000-0 -24742-4 0  9996
2 45780  53.0563 123.3776 0001039  76.4875 283.6230 15.06400094 41207
STARLINK-1497           
1 45781U 20038BD  21066.85411630 -.00000840  00000-0 -37527-4 0  9993
2 45781  53.0599 122.0713 0001289  82.5377 277.5758 15.06387419 41253
STARLINK-1498           
1 45782U 20038BE  21066.84673515 -.00000859  00000-0 -38813-4 0  9994
2 45782  53.0585 122.1069 0000976  87.5708 272.5393 15.06398358 41264
STARLINK-1505           
1 45783U 20038BF  21066.85042506 -.00001171  00000-0 -59770-4 0  9999
2 45783  53.0593 122.0875 0000976  66.0736 294.0355 15.06386129 41261
STARLINK-1510           
1 45784U 20038BG  21066.55922225  .00000893  00000-0  78849-4 0  9998
2 45784  53.0585 123.3894 0001255  75.1819 284.9309 15.06401814 41213
STARLINK-1512           
1 45785U 20038BH  21066.87254191 -.00001115  00000-0 -55981-4 0  9996
2 45785  53.0597 121.9824 0001282  72.5593 287.5537 15.06393247 41261
STARLINK-1513           
1 45786U 20038BJ  21066.85778903  .00000629  00000-0  61105-4 0  9999
2 45786  53.0591 122.0503 0001113  64.5707 295.5397 15.06398492 41263
STARLINK-1517           
1 45787U 20038BK  21066.86519629  .00000696  00000-0  65600-4 0  9997
2 45787  53.0602 122.0223 0001121  76.1757 283.9356 15.06384470 41266
STARLINK-1522           
1 46027U 20055A   21066.37401732  .00000847  00000-0  75792-4 0  9996
2 46027  53.0579  54.2437 0001289  72.2876 287.8254 15.06390492 33312
STARLINK-1523           
1 46028U 20055B   21066.65414810 -.00001035  00000-0 -50603-4 0  9995
2 46028  53.0575  52.9677 0001138  71.6892 288.4220 15.06393663 33373
STARLINK-1526           
1 46029U 20055C   21066.64677778 -.00000784  00000-0 -33773-4 0  9998
2 46029  53.0598  53.0088 0001144  64.5485 295.5622 15.06395772 33360
STARLINK-1534           
1 46030U 20055D   21066.66520930 -.00000952  00000-0 -45036-4 0  9991
2 46030  53.0583  52.9258 0001363  71.7190 288.3947 15.06395128 33320
